{"fetched_at":"2026-07-18T17:29:33.239Z","source":"https://celestrak.org/NORAD/elements/gp.php?GROUP=planet&FORMAT=JSON","constellation":"skysat","records":[{"OBJECT_NAME":"SKYSAT-A","OBJECT_ID":"2013-066C","EPOCH":"2026-07-18T01:48:46.211040","CLASSIFICATION_TYPE":"U","MEAN_MOTION":15.13124135,"ECCENTRICITY":0.00207284,"INCLINATION":97.38,"RA_OF_ASC_NODE":247.4884,"ARG_OF_PERICENTER":203.0344,"MEAN_ANOMALY":156.996,"EPHEMERIS_TYPE":0,"NORAD_CAT_ID":39418,"ELEMENT_SET_NO":999,"REV_AT_EPOCH":69315,"BSTAR":0.000087414229,"MEAN_MOTION_DOT":0.00001492,"MEAN_MOTION_DDOT":0},{"OBJECT_NAME":"SKYSAT-B","OBJECT_ID":"2014-037D","EPOCH":"2026-07-17T20:30:53.141472","CLASSIFICATION_TYPE":"U","MEAN_MOTION":14.88095356,"ECCENTRICITY":0.00057801,"INCLINATION":98.3855,"RA_OF_ASC_NODE":159.5727,"ARG_OF_PERICENTER":164.718,"MEAN_ANOMALY":195.4211,"EPHEMERIS_TYPE":0,"NORAD_CAT_ID":40072,"ELEMENT_SET_NO":999,"REV_AT_EPOCH":65052,"BSTAR":0.000070239127,"MEAN_MOTION_DOT":0.00000585,"MEAN_MOTION_DDOT":0},{"OBJECT_NAME":"SKYSAT-C1","OBJECT_ID":"2016-040C","EPOCH":"2026-07-18T02:02:04.426080","CLASSIFICATION_TYPE":"U","MEAN_MOTION":15.36776427,"ECCENTRICITY":0.00003567,"INCLINATION":96.9547,"RA_OF_ASC_NODE":229.1369,"ARG_OF_PERICENTER":218.0335,"MEAN_ANOMALY":142.0885,"EPHEMERIS_TYPE":0,"NORAD_CAT_ID":41601,"ELEMENT_SET_NO":999,"REV_AT_EPOCH":56261,"BSTAR":0.00013438496,"MEAN_MOTION_DOT":0.00004754,"MEAN_MOTION_DDOT":0},{"OBJECT_NAME":"SKYSAT-C4","OBJECT_ID":"2016-058B","EPOCH":"2026-07-18T00:23:08.822976","CLASSIFICATION_TYPE":"U","MEAN_MOTION":15.49495091,"ECCENTRICITY":0.00035075,"INCLINATION":96.9165,"RA_OF_ASC_NODE":219.5148,"ARG_OF_PERICENTER":113.6433,"MEAN_ANOMALY":246.5188,"EPHEMERIS_TYPE":0,"NORAD_CAT_ID":41771,"ELEMENT_SET_NO":999,"REV_AT_EPOCH":55024,"BSTAR":0.00018369334,"MEAN_MOTION_DOT":0.00010029,"MEAN_MOTION_DDOT":0},{"OBJECT_NAME":"SKYSAT-C5","OBJECT_ID":"2016-058C","EPOCH":"2026-07-18T01:58:02.950176","CLASSIFICATION_TYPE":"U","MEAN_MOTION":15.33742466,"ECCENTRICITY":0.00028697,"INCLINATION":97.0451,"RA_OF_ASC_NODE":238.3337,"ARG_OF_PERICENTER":153.1495,"MEAN_ANOMALY":206.9897,"EPHEMERIS_TYPE":0,"NORAD_CAT_ID":41772,"ELEMENT_SET_NO":999,"REV_AT_EPOCH":54848,"BSTAR":0.0001250326,"MEAN_MOTION_DOT":0.00004006,"MEAN_MOTION_DDOT":0},{"OBJECT_NAME":"SKYSAT-C2","OBJECT_ID":"2016-058D","EPOCH":"2026-07-18T00:15:14.277888","CLASSIFICATION_TYPE":"U","MEAN_MOTION":15.42719384,"ECCENTRICITY":0.00010262,"INCLINATION":97.0159,"RA_OF_ASC_NODE":219.9577,"ARG_OF_PERICENTER":338.8088,"MEAN_ANOMALY":21.3118,"EPHEMERIS_TYPE":0,"NORAD_CAT_ID":41773,"ELEMENT_SET_NO":999,"REV_AT_EPOCH":54980,"BSTAR":0.00016473306,"MEAN_MOTION_DOT":0.0000711,"MEAN_MOTION_DDOT":0},{"OBJECT_NAME":"SKYSAT-C3","OBJECT_ID":"2016-058E","EPOCH":"2026-07-18T01:37:53.540256","CLASSIFICATION_TYPE":"U","MEAN_MOTION":15.5379067,"ECCENTRICITY":0.00026158,"INCLINATION":96.8992,"RA_OF_ASC_NODE":228.7506,"ARG_OF_PERICENTER":130.2906,"MEAN_ANOMALY":229.8578,"EPHEMERIS_TYPE":0,"NORAD_CAT_ID":41774,"ELEMENT_SET_NO":999,"REV_AT_EPOCH":55090,"BSTAR":0.00023062767,"MEAN_MOTION_DOT":0.00014713,"MEAN_MOTION_DDOT":0},{"OBJECT_NAME":"SKYSAT-C11","OBJECT_ID":"2017-068A","EPOCH":"2026-07-17T22:29:10.631904","CLASSIFICATION_TYPE":"U","MEAN_MOTION":15.59422768,"ECCENTRICITY":0.00012891,"INCLINATION":97.4388,"RA_OF_ASC_NODE":349.1483,"ARG_OF_PERICENTER":155.4215,"MEAN_ANOMALY":204.7103,"EPHEMERIS_TYPE":0,"NORAD_CAT_ID":42987,"ELEMENT_SET_NO":999,"REV_AT_EPOCH":48803,"BSTAR":0.00021849398,"MEAN_MOTION_DOT":0.00017166,"MEAN_MOTION_DDOT":0},{"OBJECT_NAME":"SKYSAT-C10","OBJECT_ID":"2017-068B","EPOCH":"2026-07-18T04:38:59.411616","CLASSIFICATION_TYPE":"U","MEAN_MOTION":15.35151685,"ECCENTRICITY":0.00015362,"INCLINATION":97.4547,"RA_OF_ASC_NODE":336.3604,"ARG_OF_PERICENTER":111.7285,"MEAN_ANOMALY":248.4122,"EPHEMERIS_TYPE":0,"NORAD_CAT_ID":42988,"ELEMENT_SET_NO":999,"REV_AT_EPOCH":48711,"BSTAR":0.00016561584,"MEAN_MOTION_DOT":0.00005568,"MEAN_MOTION_DDOT":0},{"OBJECT_NAME":"SKYSAT-C9","OBJECT_ID":"2017-068C","EPOCH":"2026-07-18T03:06:16.542432","CLASSIFICATION_TYPE":"U","MEAN_MOTION":15.42257273,"ECCENTRICITY":0.00083874,"INCLINATION":97.4467,"RA_OF_ASC_NODE":337.5307,"ARG_OF_PERICENTER":35.2867,"MEAN_ANOMALY":324.8933,"EPHEMERIS_TYPE":0,"NORAD_CAT_ID":42989,"ELEMENT_SET_NO":999,"REV_AT_EPOCH":48752,"BSTAR":0.00016840485,"MEAN_MOTION_DOT":0.00007158,"MEAN_MOTION_DDOT":0},{"OBJECT_NAME":"SKYSAT-C8","OBJECT_ID":"2017-068D","EPOCH":"2026-07-18T07:30:13.502592","CLASSIFICATION_TYPE":"U","MEAN_MOTION":15.37527335,"ECCENTRICITY":0.00012487,"INCLINATION":97.4565,"RA_OF_ASC_NODE":336.4004,"ARG_OF_PERICENTER":104.2082,"MEAN_ANOMALY":255.9302,"EPHEMERIS_TYPE":0,"NORAD_CAT_ID":42990,"ELEMENT_SET_NO":999,"REV_AT_EPOCH":48709,"BSTAR":0.00015278732,"MEAN_MOTION_DOT":0.0000554,"MEAN_MOTION_DDOT":0},{"OBJECT_NAME":"SKYSAT-C7","OBJECT_ID":"2017-068E","EPOCH":"2026-07-18T02:41:15.693216","CLASSIFICATION_TYPE":"U","MEAN_MOTION":15.37475335,"ECCENTRICITY":0.00054702,"INCLINATION":97.4575,"RA_OF_ASC_NODE":337.1885,"ARG_OF_PERICENTER":11.3778,"MEAN_ANOMALY":348.7589,"EPHEMERIS_TYPE":0,"NORAD_CAT_ID":42991,"ELEMENT_SET_NO":999,"REV_AT_EPOCH":48712,"BSTAR":0.00015903525,"MEAN_MOTION_DOT":0.00005762,"MEAN_MOTION_DDOT":0},{"OBJECT_NAME":"SKYSAT-C6","OBJECT_ID":"2017-068F","EPOCH":"2026-07-17T20:48:44.417664","CLASSIFICATION_TYPE":"U","MEAN_MOTION":15.34196805,"ECCENTRICITY":0.00050529,"INCLINATION":97.4612,"RA_OF_ASC_NODE":336.7817,"ARG_OF_PERICENTER":82.8828,"MEAN_ANOMALY":277.2989,"EPHEMERIS_TYPE":0,"NORAD_CAT_ID":42992,"ELEMENT_SET_NO":999,"REV_AT_EPOCH":48702,"BSTAR":0.00015546302,"MEAN_MOTION_DOT":0.00005065,"MEAN_MOTION_DDOT":0},{"OBJECT_NAME":"SKYSAT-C12","OBJECT_ID":"2018-099AR","EPOCH":"2026-07-18T00:43:37.888896","CLASSIFICATION_TYPE":"U","MEAN_MOTION":15.49847254,"ECCENTRICITY":0.00051397,"INCLINATION":96.9254,"RA_OF_ASC_NODE":221.0451,"ARG_OF_PERICENTER":63.8595,"MEAN_ANOMALY":296.3186,"EPHEMERIS_TYPE":0,"NORAD_CAT_ID":43797,"ELEMENT_SET_NO":999,"REV_AT_EPOCH":42663,"BSTAR":0.00019044833,"MEAN_MOTION_DOT":0.00010534,"MEAN_MOTION_DDOT":0}]}
